CSS (TIANHE)            
1 48274U 21035A   25137.58416187  .00038143  00000+0  42483-3 0  9996
2 48274  41.4636 206.5795 0006305 287.2866  72.7283 15.62067857231370
ISS (NAUKA)             
1 49044U 21066A   25137.37867795  .00009856  00000+0  18315-3 0  9994
2 49044  51.6353  99.6980 0002289 118.7619 241.3599 15.49573655212896
CSS (WENTIAN)           
1 53239U 22085A   25137.58416187  .00038143  00000+0  42483-3 0  9999
2 53239  41.4636 206.5795 0006305 287.2866  72.7283 15.62067857156834
CSS (MENGTIAN)          
1 54216U 22143A   25137.58416187  .00038143  00000+0  42483-3 0  9990
2 54216  41.4636 206.5795 0006305 287.2866  72.7283 15.62067857141597
TIANZHOU-8              
1 61983U 24211A   25137.58416187  .00038143  00000+0  42483-3 0  9997
2 61983  41.4636 206.5795 0006305 287.2866  72.7283 15.62067857 24664
PROGRESS-MS 29          
1 62030U 24215A   25137.37867795  .00009856  00000+0  18315-3 0  9993
2 62030  51.6353  99.6980 0002289 118.7619 241.3599 15.49573655 23829
PROGRESS-MS 30          
1 63129U 25041B   25137.37867795  .00009856  00000+0  18315-3 0  9991
2 63129  51.6353  99.6980 0002289 118.7619 241.3599 15.49573655  8563
CREW DRAGON 10          
1 63204U 25049A   25137.37867795  .00009856  00000+0  18315-3 0  9993
2 63204  51.6353  99.6980 0002289 118.7619 241.3599 15.49573655  8006
SOYUZ-MS 27             
1 63520U 25072A   25137.37867795  .00009856  00000+0  18315-3 0  9990
2 63520  51.6353  99.6980 0002289 118.7619 241.3599 15.49573655  2483
DRAGON CRS-32           
1 63628U 25080A   25137.37867795  .00009856  00000+0  18315-3 0  9998
2 63628  51.6353  99.6980 0002289 118.7619 241.3599 15.49573655508540
SHENZHOU-20 (SZ-20)     
1 63632U 25082A   25137.58416187  .00038143  00000+0  42483-3 0  9997
2 63632  41.4636 206.5795 0006305 287.2866  72.7283 15.62067857229631
