[
  {
    "OBJECT_NAME": "CSS (TIANHE)",
    "OBJECT_ID": "2021-035A",
    "EPOCH": "2025-05-17T14:01:11.585568",
    "MEAN_MOTION": 15.62067857,
    "ECCENTRICITY": 0.0006305,
    "INCLINATION": 41.4636,
    "RA_OF_ASC_NODE": 206.5795,
    "ARG_OF_PERICENTER": 287.2866,
    "MEAN_ANOMALY": 72.7283,
    "EPHEMERIS_TYPE": 0,
    "CLASSIFICATION_TYPE": "U",
    "NORAD_CAT_ID": 48274,
    "ELEMENT_SET_NO": 999,
    "REV_AT_EPOCH": 23137,
    "BSTAR": 0.00042483,
    "MEAN_MOTION_DOT": 0.00038143,
    "MEAN_MOTION_DDOT": 0
  },
  {
    "OBJECT_NAME": "ISS (NAUKA)",
    "OBJECT_ID": "2021-066A",
    "EPOCH": "2025-05-17T09:05:17.774880",
    "MEAN_MOTION": 15.49573655,
    "ECCENTRICITY": 0.0002289,
    "INCLINATION": 51.6353,
    "RA_OF_ASC_NODE": 99.698,
    "ARG_OF_PERICENTER": 118.7619,
    "MEAN_ANOMALY": 241.3599,
    "EPHEMERIS_TYPE": 0,
    "CLASSIFICATION_TYPE": "U",
    "NORAD_CAT_ID": 49044,
    "ELEMENT_SET_NO": 999,
    "REV_AT_EPOCH": 21289,
    "BSTAR": 0.00018315,
    "MEAN_MOTION_DOT": 9.856e-05,
    "MEAN_MOTION_DDOT": 0
  },
  {
    "OBJECT_NAME": "CSS (WENTIAN)",
    "OBJECT_ID": "2022-085A",
    "EPOCH": "2025-05-17T14:01:11.585568",
    "MEAN_MOTION": 15.62067857,
    "ECCENTRICITY": 0.0006305,
    "INCLINATION": 41.4636,
    "RA_OF_ASC_NODE": 206.5795,
    "ARG_OF_PERICENTER": 287.2866,
    "MEAN_ANOMALY": 72.7283,
    "EPHEMERIS_TYPE": 0,
    "CLASSIFICATION_TYPE": "U",
    "NORAD_CAT_ID": 53239,
    "ELEMENT_SET_NO": 999,
    "REV_AT_EPOCH": 15683,
    "BSTAR": 0.00042483,
    "MEAN_MOTION_DOT": 0.00038143,
    "MEAN_MOTION_DDOT": 0
  },
  {
    "OBJECT_NAME": "CSS (MENGTIAN)",
    "OBJECT_ID": "2022-143A",
    "EPOCH": "2025-05-17T14:01:11.585568",
    "MEAN_MOTION": 15.62067857,
    "ECCENTRICITY": 0.0006305,
    "INCLINATION": 41.4636,
    "RA_OF_ASC_NODE": 206.5795,
    "ARG_OF_PERICENTER": 287.2866,
    "MEAN_ANOMALY": 72.7283,
    "EPHEMERIS_TYPE": 0,
    "CLASSIFICATION_TYPE": "U",
    "NORAD_CAT_ID": 54216,
    "ELEMENT_SET_NO": 999,
    "REV_AT_EPOCH": 14159,
    "BSTAR": 0.00042483,
    "MEAN_MOTION_DOT": 0.00038143,
    "MEAN_MOTION_DDOT": 0
  },
  {
    "OBJECT_NAME": "TIANZHOU-8",
    "OBJECT_ID": "2024-211A",
    "EPOCH": "2025-05-17T14:01:11.585568",
    "MEAN_MOTION": 15.62067857,
    "ECCENTRICITY": 0.0006305,
    "INCLINATION": 41.4636,
    "RA_OF_ASC_NODE": 206.5795,
    "ARG_OF_PERICENTER": 287.2866,
    "MEAN_ANOMALY": 72.7283,
    "EPHEMERIS_TYPE": 0,
    "CLASSIFICATION_TYPE": "U",
    "NORAD_CAT_ID": 61983,
    "ELEMENT_SET_NO": 999,
    "REV_AT_EPOCH": 2466,
    "BSTAR": 0.00042483,
    "MEAN_MOTION_DOT": 0.00038143,
    "MEAN_MOTION_DDOT": 0
  },
  {
    "OBJECT_NAME": "PROGRESS-MS 29",
    "OBJECT_ID": "2024-215A",
    "EPOCH": "2025-05-17T09:05:17.774880",
    "MEAN_MOTION": 15.49573655,
    "ECCENTRICITY": 0.0002289,
    "INCLINATION": 51.6353,
    "RA_OF_ASC_NODE": 99.698,
    "ARG_OF_PERICENTER": 118.7619,
    "MEAN_ANOMALY": 241.3599,
    "EPHEMERIS_TYPE": 0,
    "CLASSIFICATION_TYPE": "U",
    "NORAD_CAT_ID": 62030,
    "ELEMENT_SET_NO": 999,
    "REV_AT_EPOCH": 2382,
    "BSTAR": 0.00018315,
    "MEAN_MOTION_DOT": 9.856e-05,
    "MEAN_MOTION_DDOT": 0
  },
  {
    "OBJECT_NAME": "PROGRESS-MS 30",
    "OBJECT_ID": "2025-041B",
    "EPOCH": "2025-05-17T09:05:17.774880",
    "MEAN_MOTION": 15.49573655,
    "ECCENTRICITY": 0.0002289,
    "INCLINATION": 51.6353,
    "RA_OF_ASC_NODE": 99.698,
    "ARG_OF_PERICENTER": 118.7619,
    "MEAN_ANOMALY": 241.3599,
    "EPHEMERIS_TYPE": 0,
    "CLASSIFICATION_TYPE": "U",
    "NORAD_CAT_ID": 63129,
    "ELEMENT_SET_NO": 999,
    "REV_AT_EPOCH": 856,
    "BSTAR": 0.00018315,
    "MEAN_MOTION_DOT": 9.856e-05,
    "MEAN_MOTION_DDOT": 0
  },
  {
    "OBJECT_NAME": "CREW DRAGON 10",
    "OBJECT_ID": "2025-049A",
    "EPOCH": "2025-05-17T09:05:17.774880",
    "MEAN_MOTION": 15.49573655,
    "ECCENTRICITY": 0.0002289,
    "INCLINATION": 51.6353,
    "RA_OF_ASC_NODE": 99.698,
    "ARG_OF_PERICENTER": 118.7619,
    "MEAN_ANOMALY": 241.3599,
    "EPHEMERIS_TYPE": 0,
    "CLASSIFICATION_TYPE": "U",
    "NORAD_CAT_ID": 63204,
    "ELEMENT_SET_NO": 999,
    "REV_AT_EPOCH": 800,
    "BSTAR": 0.00018315,
    "MEAN_MOTION_DOT": 9.856e-05,
    "MEAN_MOTION_DDOT": 0
  },
  {
    "OBJECT_NAME": "SOYUZ-MS 27",
    "OBJECT_ID": "2025-072A",
    "EPOCH": "2025-05-17T09:05:17.774880",
    "MEAN_MOTION": 15.49573655,
    "ECCENTRICITY": 0.0002289,
    "INCLINATION": 51.6353,
    "RA_OF_ASC_NODE": 99.698,
    "ARG_OF_PERICENTER": 118.7619,
    "MEAN_ANOMALY": 241.3599,
    "EPHEMERIS_TYPE": 0,
    "CLASSIFICATION_TYPE": "U",
    "NORAD_CAT_ID": 63520,
    "ELEMENT_SET_NO": 999,
    "REV_AT_EPOCH": 248,
    "BSTAR": 0.00018315,
    "MEAN_MOTION_DOT": 9.856e-05,
    "MEAN_MOTION_DDOT": 0
  },
  {
    "OBJECT_NAME": "DRAGON CRS-32",
    "OBJECT_ID": "2025-080A",
    "EPOCH": "2025-05-17T09:05:17.774880",
    "MEAN_MOTION": 15.49573655,
    "ECCENTRICITY": 0.0002289,
    "INCLINATION": 51.6353,
    "RA_OF_ASC_NODE": 99.698,
    "ARG_OF_PERICENTER": 118.7619,
    "MEAN_ANOMALY": 241.3599,
    "EPHEMERIS_TYPE": 0,
    "CLASSIFICATION_TYPE": "U",
    "NORAD_CAT_ID": 63628,
    "ELEMENT_SET_NO": 999,
    "REV_AT_EPOCH": 50854,
    "BSTAR": 0.00018315,
    "MEAN_MOTION_DOT": 9.856e-05,
    "MEAN_MOTION_DDOT": 0
  },
  {
    "OBJECT_NAME": "SHENZHOU-20 (SZ-20)",
    "OBJECT_ID": "2025-082A",
    "EPOCH": "2025-05-17T14:01:11.585568",
    "MEAN_MOTION": 15.62067857,
    "ECCENTRICITY": 0.0006305,
    "INCLINATION": 41.4636,
    "RA_OF_ASC_NODE": 206.5795,
    "ARG_OF_PERICENTER": 287.2866,
    "MEAN_ANOMALY": 72.7283,
    "EPHEMERIS_TYPE": 0,
    "CLASSIFICATION_TYPE": "U",
    "NORAD_CAT_ID": 63632,
    "ELEMENT_SET_NO": 999,
    "REV_AT_EPOCH": 22963,
    "BSTAR": 0.00042483,
    "MEAN_MOTION_DOT": 0.00038143,
    "MEAN_MOTION_DDOT": 0
  }
]